satname,norad_id,inclination_deg,eccentricity,mean_motion_rev_per_day,perigee_km,apogee_km,l1,l2
STARLINK-1496,45780,53.0543,0.0002875,15.38121021,449.70231555790724,453.62945221614154,1 45780U 20038BC  26012.22578396  .00060360  00000+0  15824-2 0  9996,2 45780  53.0543  85.8979 0002875  23.4562 336.6571 15.38121021308293
STARLINK-1497,45781,53.0309,0.0007297,15.83003678,317.0627456132015,326.84085520852113,1 45781U 20038BD  26012.91668981  .00298058  00000+0  13225-2 0  9993,2 45781  53.0309   0.7236 0007297  69.0791 197.3772 15.83003678  5857
STARLINK-1513,45786,53.0542,0.0001168,15.06385657,546.4466316702574,548.0644033623494,1 45786U 20038BJ  26012.58561873  .00005284  00000+0  37347-3 0  9992,2 45786  53.0542  88.4793 0001168  79.6219 280.4902 15.06385657308305
STARLINK-1522,46027,53.0548,0.0001407,15.06397907,546.2435752445999,548.1923701339147,1 46027U 20055A   26012.69894207  .00001201  00000+0  99513-4 0  9991,2 46027  53.0548  17.9689 0001407  87.3222 272.7928 15.06397907300447
STARLINK-1523,46028,53.0554,0.0001485,15.06396555,546.1937005584441,548.2505322160114,1 46028U 20055B   26012.71369007  .00001910  00000+0  14711-3 0  9993,2 46028  53.0554  17.9066 0001485  94.6858 265.4300 15.06396555300469
STARLINK-1526,46029,53.0549,0.0001288,15.06398835,546.3231431436361,548.1071138519374,1 46029U 20055C   26012.70631484  .00000236  00000+0  34732-4 0  9990,2 46029  53.0549  17.9359 0001288  88.2358 271.8778 15.06398835300456
STARLINK-1555,46032,53.0554,0.0001378,15.06400394,546.2560375204048,548.1646632501715,1 46032U 20055F   26012.29348968  .00003207  00000+0  23408-3 0  9998,2 46032  53.0554  19.7892 0001378  90.2221 269.8926 15.06400394300399
STARLINK-1556,46033,53.0553,0.0001418,15.06396742,546.2395274156015,548.2035590984697,1 46033U 20055G   26012.73949156  .00001863  00000+0  14395-3 0  9995,2 46033  53.0553  17.7870 0001418  92.7810 267.3341 15.06396742300439
STARLINK-1557,46034,53.056,0.0001296,15.06404534,546.3001385439629,548.0951852883309,1 46034U 20055H   26012.27875787  .00001814  00000+0  14064-3 0  9992,2 46034  53.0560  19.8559 0001296  85.9154 274.1983 15.06404534300363
STARLINK-1558,46035,53.0566,0.0001521,15.06392182,546.1821699257553,548.2888682460607,1 46035U 20055J   26012.28612417  .00000961  00000+0  83414-4 0  9991,2 46035  53.0566  19.8259 0001521  86.0353 274.0810 15.06392182300397
STARLINK-1560,46036,53.0537,0.000118,15.06427863,546.3089821192771,547.943344225786,1 46036U 20055K   26012.27136014  .00011370  00000+0  78037-3 0  9995,2 46036  53.0537  19.8886 0001180  83.4159 276.6965 15.06427863300392
STARLINK-1567,46038,53.0548,0.0001229,15.06399596,546.3616706504217,548.0639216303134,1 46038U 20055M   26012.74686137 -.00001914  00000+0 -10965-3 0  9996,2 46038  53.0548  17.7553 0001229  85.4499 274.6631 15.06399596300453
STARLINK-1569,46039,53.0558,0.0001277,15.06395874,546.3398349371937,548.1085721885838,1 46039U 20055N   26012.22345760  .00001344  00000+0  10912-3 0  9991,2 46039  53.0558  20.1045 0001277  94.4140 265.6995 15.06395874300374
STARLINK-1582,46043,53.0554,0.0001359,15.0640415,546.2576856746919,548.1399919556825,1 46043U 20055S   26012.23082778  .00001029  00000+0  87975-4 0  9998,2 46043  53.0554  20.0716 0001359  90.3151 269.7994 15.06404150300379
STARLINK-1591,46045,53.0559,0.0001271,15.0639021,546.361347425398,548.1217786561228,1 46045U 20055U   26012.72106387  .00000535  00000+0  54805-4 0  9994,2 46045  53.0559  17.8709 0001271  88.8147 271.2987 15.06390210300430
STARLINK-1524,46047,53.0546,0.0001243,15.06408434,546.3248914508613,548.046526676334,1 46047U 20055W   26012.27598051  .00005883  00000+0  41344-3 0  9993,2 46047  53.0546   9.8686 0001243  83.2449 276.8682 15.06408434300527
STARLINK-1527,46048,53.0541,0.0001642,15.06396498,546.0851470890948,548.359435080286,1 46048U 20055X   26012.67037839 -.00000717  00000+0 -29249-4 0  9994,2 46048  53.0541   8.0968 0001642  85.6811 274.4365 15.06396498300561
STARLINK-1540,46051,53.0545,0.0001449,15.06400242,546.207333344657,548.2142991418041,1 46051U 20055AA  26012.70355473  .00002705  00000+0  20040-3 0  9995,2 46051  53.0545   7.9487 0001449  87.4027 272.7127 15.06400242300602
STARLINK-1541,46052,53.0555,0.0001369,15.06411833,546.2272164822007,548.1233669876783,1 46052U 20055AB  26012.22436712  .00004697  00000+0  33387-3 0  9999,2 46052  53.0555  10.1005 0001369 100.1189 259.9954 15.06411833300499
STARLINK-1543,46053,53.0559,0.0001431,15.06385677,546.2644325577276,548.2464798786978,1 46053U 20055AC  26012.22807638  .00000793  00000+0  72174-4 0  9990,2 46053  53.0559  10.0845 0001431  91.4521 268.6632 15.06385677300527
STARLINK-1548,46054,53.0557,0.0001533,15.06390795,546.1781098223219,548.3014303400287,1 46054U 20055AD  26012.69987345  .00000778  00000+0  71132-4 0  9992,2 46054  53.0557   7.9655 0001533  94.1975 265.9189 15.06390795300597
STARLINK-1554,46055,53.0563,0.0001176,15.06390937,546.4249106102488,548.05375912421,1 46055U 20055AE  26012.68512469 -.00000650  00000+0 -24757-4 0  9995,2 46055  53.0563   8.0318 0001176  95.3327 264.7796 15.06390937300599
STARLINK-1564,46058,53.0565,0.0001673,15.06391766,546.0781790415667,548.3954091130645,1 46058U 20055AH  26012.69624449  .00001193  00000+0  98978-4 0  9998,2 46058  53.0565   8.4450 0001673  95.0537 265.0643 15.06391766300582
STARLINK-1570,46059,53.0553,0.00014,15.06401314,546.2379824861546,548.1770789547572,1 46059U 20055AJ  26012.26123338  .00001636  00000+0  12870-3 0  9991,2 46059  53.0553   9.9373 0001400  84.3765 275.7384 15.06401314300482
STARLINK-1572,46060,53.056,0.0001406,15.06400167,546.237342172094,548.1847500426593,1 46060U 20055AK  26011.72677839  .00001802  00000+0  13987-3 0  9998,2 46060  53.0560  12.3332 0001406  93.1482 266.9668 15.06400167300410
STARLINK-1573,46061,53.0564,0.0001404,15.06386393,546.2809369546794,548.2255865401785,1 46061U 20055AL  26012.18754014  .00003168  00000+0  23156-3 0  9997,2 46061  53.0564  10.3028 0001404  90.8256 269.2894 15.06386393300518
STARLINK-1577,46063,53.0561,0.0001481,15.06400372,546.1847738595125,548.2360617646682,1 46063U 20055AN  26012.67774656  .00001162  00000+0  96867-4 0  9999,2 46063  53.0561   8.0634 0001481  88.0573 272.0586 15.06400372300581
STARLINK-1583,46064,53.0545,0.0001185,15.06410094,546.359971316685,548.0012715929697,1 46064U 20055AP  26012.71091188  .00002138  00000+0  16236-3 0  9992,2 46064  53.0545   7.9157 0001185  94.0951 266.0173 15.06410094300598
